     2.10           GLONASS NAV DATA                        RINEX VERSION / TYPE
SPIDER V4,0,0,3554                      2015 03 24 09:15    PGM / RUN BY / DATE 
  2015     3     6   -8.847564458847e-009                    CORR TO SYSTEM TIME 
    16                                                      LEAP SECONDS        
                                                            END OF HEADER       
13 15 03 06 11 15  0.0-4.743728786707D-04-9.094947017729D-13 3.966000000000D+04
    2.311323486328D+04 1.339511871338D+00 3.725290298462D-09 0.000000000000D+00
   -4.550316406250D+03-2.015991210938D-01 1.862645149231D-09-2.000000000000D+00
   -9.798806640625D+03 3.259615898132D+00 0.000000000000D+00 0.000000000000D+00
 3 15 03 06 11 15  0.0 3.661680966616D-05 9.094947017729D-13 4.086000000000D+04
   -5.763833007813D+02 1.148380279541D+00-1.862645149231D-09 0.000000000000D+00
   -1.808643945313D+04 2.177082061768D+00 9.313225746155D-10 5.000000000000D+00
    1.802123242188D+04 2.223225593567D+00-1.862645149231D-09 0.000000000000D+00
13 15 03 06 11 45  0.0-4.743756726384D-04-9.094947017729D-13 4.140000000000D+04
    2.474555468750D+04 4.615001678467D-01 4.656612873077D-09 0.000000000000D+00
   -5.019984375000D+03-2.790565490723D-01 1.862645149231D-09-2.000000000000D+00
   -3.628597167969D+03 3.551693916321D+00-0.000000000000D+00 0.000000000000D+00
 3 15 03 06 11 45  0.0 3.661867231131D-05 9.094947017729D-13 4.140000000000D+04
    2.017284179688D+03 1.725966453552D+00-0.000000000000D+00 0.000000000000D+00
   -1.398060937500D+04 2.336610794067D+00 9.313225746155D-10 5.000000000000D+00
    2.127741992188D+04 1.371381759644D+00-1.862645149231D-09 0.000000000000D+00
 2 15 03 06 11 45  0.0 1.217480748892D-04 1.818989403546D-12 4.140000000000D+04
    1.396494433594D+04 1.837220191956D+00 2.793967723846D-09 0.000000000000D+00
    1.537017578125D+03 2.259647369385D+00 0.000000000000D+00-4.000000000000D+00
    2.131266015625D+04-1.371561050415D+00-1.862645149231D-09 0.000000000000D+00
 1 15 03 06 11 45  0.0-1.556938514113D-04 0.000000000000D+00 4.140000000000D+04
    1.783429199219D+04 8.208026885986D-01 3.725290298462D-09 0.000000000000D+00
    1.614163720703D+04 8.372097015381D-01-0.000000000000D+00 1.000000000000D+00
    8.510522949219D+03-3.304734230042D+00-9.313225746155D-10 0.000000000000D+00
11 15 03 06 11 45  0.0 2.258457243443D-06 0.000000000000D+00 4.140000000000D+04
    4.357650390625D+03-3.133841514587D+00 9.313225746155D-10 0.000000000000D+00
    1.002718017578D+04 3.994035720825D-01-0.000000000000D+00 0.000000000000D+00
    2.303666357422D+04 4.271564483643D-01-1.862645149231D-09 0.000000000000D+00
12 15 03 06 11 45  0.0-3.220513463020D-06 1.818989403546D-12 4.140000000000D+04
    2.114638476563D+04-1.901406288147D+00 3.725290298462D-09 0.000000000000D+00
    3.788192382813D+03 7.954692840576D-02 9.313225746155D-10-1.000000000000D+00
    1.384430859375D+04 2.862601280212D+00-1.862645149231D-09 0.000000000000D+00
13 15 03 06 12 15  0.0-4.743784666061D-04-9.094947017729D-13 4.320000000000D+04
    2.476505664063D+04-4.324254989624D-01 4.656612873077D-09 0.000000000000D+00
   -5.403398437500D+03-1.055459976196D-01 9.313225746155D-10-2.000000000000D+00
    2.822138671875D+03 3.569233894348D+00-0.000000000000D+00 0.000000000000D+00
 3 15 03 06 12 15  0.0 3.662146627903D-05 9.094947017729D-13 4.320000000000D+04
    5.577429687500D+03 2.204526901245D+00 9.313225746155D-10 0.000000000000D+00
   -9.843788085938D+03 2.215723037720D+00 9.313225746155D-10 5.000000000000D+00
    2.289467724609D+04 4.139251708984D-01-1.862645149231D-09 0.000000000000D+00
 2 15 03 06 12 15  0.0 1.217518001795D-04 1.818989403546D-12 4.320000000000D+04
    1.730532714844D+04 1.829077720642D+00 3.725290298462D-09 0.000000000000D+00
    5.080789550781D+03 1.658336639404D+00-0.000000000000D+00-4.000000000000D+00
    1.805341503906D+04-2.226495742798D+00-1.862645149231D-09 0.000000000000D+00
 1 15 03 06 12 15  0.0-1.556929200888D-04 0.000000000000D+00 4.320000000000D+04
    1.889864941406D+04 3.244419097900D-01 3.725290298462D-09 0.000000000000D+00
    1.698909863281D+04 1.214570999146D-01-9.313225746155D-10 1.000000000000D+00
    2.310041992188D+03-3.539983749390D+00-0.000000000000D+00 0.000000000000D+00
11 15 03 06 12 15  0.0 2.259388566017D-06 0.000000000000D+00 4.320000000000D+04
   -1.226574707031D+03-3.019253730774D+00-0.000000000000D+00 0.000000000000D+00
    1.117036669922D+04 8.594684600830D-01-9.313225746155D-10 0.000000000000D+00
    2.290480224609D+04-5.724534988403D-01-1.862645149231D-09 0.000000000000D+00
12 15 03 06 12 15  0.0-3.216788172722D-06 9.094947017729D-13 4.320000000000D+04
    1.717597656250D+04-2.468732833862D+00 2.793967723846D-09 0.000000000000D+00
    4.312871582031D+03 5.253305435181D-01-0.000000000000D+00-1.000000000000D+00
    1.839816992188D+04 2.164265632629D+00-1.862645149231D-09 0.000000000000D+00
13 15 03 06 12 45  0.0-4.743812605739D-04-9.094947017729D-13 4.500000000000D+04
    2.325022949219D+04-1.224600791931D+00 4.656612873077D-09 0.000000000000D+00
   -5.261606445313D+03 2.970819473267D-01-0.000000000000D+00-2.000000000000D+00
    9.054492675781D+03 3.310578346252D+00-9.313225746155D-10 0.000000000000D+00
 3 15 03 06 12 45  0.0 3.662332892418D-05 9.094947017729D-13 4.500000000000D+04
    9.835450195313D+03 2.487174987793D+00 1.862645149231D-09 0.000000000000D+00
   -6.145176269531D+03 1.860767364502D+00 0.000000000000D+00 5.000000000000D+00
    2.274819677734D+04-5.757026672363D-01-1.862645149231D-09 0.000000000000D+00
 2 15 03 06 12 45  0.0 1.217555254698D-04 1.818989403546D-12 4.500000000000D+04
    2.038165429688D+04 1.542535781860D+00 3.725290298462D-09 0.000000000000D+00
    7.469896972656D+03 9.953355789185D-01-9.313225746155D-10-4.000000000000D+00
    1.340020166016D+04-2.910322189331D+00-9.313225746155D-10 0.000000000000D+00
 1 15 03 06 12 45  0.0-1.556919887662D-04 0.000000000000D+00 4.500000000000D+04
    1.888824707031D+04-3.608150482178D-01 3.725290298462D-09 0.000000000000D+00
    1.666869628906D+04-4.455709457397D-01-1.862645149231D-09 1.000000000000D+00
   -4.068902343750D+03-3.501751899719D+00 0.000000000000D+00 0.000000000000D+00
12 15 03 06 12 45  0.0-3.214925527573D-06 9.094947017729D-13 4.500000000000D+04
    1.242517529297D+04-2.760453224182D+00 1.862645149231D-09 0.000000000000D+00
    5.728475585938D+03 1.052336692810D+00-9.313225746155D-10-1.000000000000D+00
    2.153415722656D+04 1.297204971313D+00-1.862645149231D-09 0.000000000000D+00
14 15 03 06 12 45  0.0 1.392662525177D-04 4.547473508865D-12 4.563000000000D+04
    2.036675585938D+04 1.030919075012D+00 4.656612873077D-09 0.000000000000D+00
   -1.263574951172D+04-6.690044403076D-01 0.000000000000D+00-7.000000000000D+00
   -8.843423339844D+03 3.331845283508D+00 0.000000000000D+00 0.000000000000D+00
13 15 03 06 13 15  0.0-4.743849858642D-04-9.094947017729D-13 4.680000000000D+04
    2.047835498047D+04-1.814814567566D+00 3.725290298462D-09 0.000000000000D+00
   -4.234513671875D+03 8.642673492432D-01-9.313225746155D-10-2.000000000000D+00
    1.458597900391D+04 2.795526504517D+00-1.862645149231D-09 0.000000000000D+00
 3 15 03 06 13 15  0.0 3.662519156933D-05 9.094947017729D-13 4.680000000000D+04
    1.437191992188D+04 2.505629539490D+00 2.793967723846D-09 0.000000000000D+00
   -3.236632812500D+03 1.353873252869D+00-0.000000000000D+00 5.000000000000D+00
    2.084849023438D+04-1.521531105042D+00-1.862645149231D-09 0.000000000000D+00
 2 15 03 06 13 15  0.0 1.217592507601D-04 9.094947017729D-13 4.680000000000D+04
    2.269978320313D+04 9.930315017700D-01 3.725290298462D-09 0.000000000000D+00
    8.694071777344D+03 3.820266723633D-01-1.862645149231D-09-4.000000000000D+00
    7.711200683594D+03-3.369814872742D+00-9.313225746155D-10 0.000000000000D+00
 1 15 03 06 13 15  0.0-1.556919887662D-04 0.000000000000D+00 4.680000000000D+04
    1.754013525391D+04-1.144698143005D+00 2.793967723846D-09 0.000000000000D+00
    1.551844970703D+04-7.916097640991D-01-1.862645149231D-09 1.000000000000D+00
   -1.013356103516D+04-3.193049430847D+00 9.313225746155D-10 0.000000000000D+00
12 15 03 06 13 15  0.0-3.213062882423D-06 9.094947017729D-13 4.680000000000D+04
    7.420081054688D+03-2.750864028931D+00 0.000000000000D+00 0.000000000000D+00
    8.084974121094D+03 1.552184104919D+00-9.313225746155D-10-1.000000000000D+00
    2.300633300781D+04 3.274765014648D-01-1.862645149231D-09 0.000000000000D+00
14 15 03 06 13 15  0.0 1.392755657434D-04 4.547473508865D-12 4.680000000000D+04
    2.145337255859D+04 1.826963424683D-01 4.656612873077D-09 0.000000000000D+00
   -1.362434130859D+04-3.866405487061D-01-0.000000000000D+00-7.000000000000D+00
   -2.582864746094D+03 3.579369544983D+00-0.000000000000D+00 0.000000000000D+00
 4 15 03 06 13 15  0.0 1.120893284678D-04 9.094947017729D-13 4.782000000000D+04
   -2.602890625000D+03 2.540860176086D+00 0.000000000000D+00 0.000000000000D+00
   -1.332401318359D+04 1.510866165161D+00 9.313225746155D-10 6.000000000000D+00
    2.160595898438D+04 1.237538337708D+00-1.862645149231D-09 0.000000000000D+00
13 15 03 06 13 45  0.0-4.743877798319D-04-9.094947017729D-13 4.860000000000D+04
    1.687900390625D+04-2.136345863342D+00 2.793967723846D-09 0.000000000000D+00
   -2.109160156250D+03 1.499383926392D+00-9.313225746155D-10-2.000000000000D+00
    1.898807080078D+04 2.063847541809D+00-1.862645149231D-09 0.000000000000D+00
 3 15 03 06 13 45  0.0 3.662705421448D-05 9.094947017729D-13 4.860000000000D+04
    1.867951855469D+04 2.231971740723D+00 2.793967723846D-09 0.000000000000D+00
   -1.300125000000D+03 7.989711761475D-01-9.313225746155D-10 5.000000000000D+00
    1.734082470703D+04-2.350750923157D+00-1.862645149231D-09 0.000000000000D+00
